CELTEE 1                
1 41850U 16067C   18305.79929100  .00000655  00000-0  62343-4 0  9990
2 41850  97.9215  35.7890 0010195  71.0026 289.2299 14.96888820107684
OPTICUBE 04             
1 41851U 16067D   18305.84577270 -.00000070  00000-0 -78945-6 0  9994
2 41851  97.9208  35.7103 0009988  70.4162 289.8137 14.96719217107686
AEROCUBE 8D             
1 41852U 16067E   18305.22876528 -.00000317  00000-0 -22488-4 0  9998
2 41852  97.9227  34.9176 0011006  71.5922 288.6494 14.96578914107577
AEROCUBE 8C             
1 41853U 16067F   18304.91190290  .00000035  00000-0  84055-5 0  9993
2 41853  97.9220  34.5503 0011155  74.1715 286.0735 14.96538625107525
PROMETHEUS 2-1          
1 41854U 16067G   18304.84015009  .00000014  00000-0  65810-5 0  9995
2 41854  97.9227  34.5242 0011437  73.7915 286.4563 14.96685162107514
PROMETHEUS 2-3          
1 41855U 16067H   18305.84573089  .00000185  00000-0  21515-4 0  9996
2 41855  97.9227  35.5503 0011553  71.4524 288.7951 14.96684871107664
ITF-2                   
1 41932U 98067KU  18305.57226620  .00081257  13587-4  26491-3 0  9992
2 41932  51.6284 346.8854 0006434  23.6267 336.5033 15.90739422102512
AOBA-VELOX 3            
1 41935U 98067KX  18305.47522705  .06673673  12387-4  58971-3 0  9997
2 41935  51.6243 332.8723 0002264  27.6675 118.1989 16.38373561102788
INS-1B                  
1 41954U 17008G   18305.75286044  .00000983  00000-0  44325-4 0  9994
2 41954  97.4312   8.4748 0008225 222.8685 137.1912 15.23359412 94947
BGUSAT                  
1 41999U 17008BD  18304.91802916  .00001631  00000-0  67947-4 0  9998
2 41999  97.4365   9.1420 0006919 243.9686 116.0840 15.25150927 94265
DIDO-2                  
1 42000U 17008BE  18305.74689192  .00000738  00000-0  33936-4 0  9991
2 42000  97.4328   8.9616 0007127 244.3062 115.7439 15.23466546 94341
PEASSS                  
1 42015U 17008BV  18304.86228115  .00000882  00000-0  38996-4 0  9994
2 42015  97.4330   8.7128 0004911 254.8809 105.1885 15.24324704 94730
AL-FARABI 1             
1 42016U 17008BW  18305.73312974  .00001107  00000-0  47504-4 0  9995
2 42016  97.4338   9.8842 0004821 250.3537 109.7181 15.24820806 95007
NAYIF-1 (EO-88)         
1 42017U 17008BX  18304.87201906  .00001146  00000-0  49021-4 0  9991
2 42017  97.4337   9.0376 0004756 254.7711 105.3001 15.24845544 94895
HAVELSAT                
1 42700U 98067LH  18305.60267216  .00047276  00000-0  23444-3 0  9996
2 42700  51.6296   7.5181 0004955  34.7918 325.3408 15.81487923 83689
CXBN-2                  
1 42704U 98067LM  18305.60249015  .00050605  00000-0  25708-3 0  9992
2 42704  51.6322   9.0667 0004328   4.4801 355.6239 15.80938030 83584
PHOENIX                 
1 42706U 98067LP  18305.79199290  .00026644  00000-0  17222-3 0  9991
2 42706  51.6321  11.8759 0002922 359.5446   0.5550 15.75885585 83554
X-CUBESAT               
1 42707U 98067LQ  18305.61936776  .00058420  00000-0  26266-3 0  9996
2 42707  51.6304   6.0309 0004651   9.8224 350.2869 15.83500166 83605
QBEE50-LTU-OC           
1 42708U 98067LR  18305.62019948  .00049026  00000-0  24724-3 0  9990
2 42708  51.6307   8.4024 0003527  12.3216 347.7871 15.81114958 83534
ALTAIR PATHFINDER       
1 42711U 98067LS  18305.81750821  .00015675  00000-0  14023-3 0  9991
2 42711  51.6359  24.8805 0004103 347.4591  12.6303 15.68555001 83040
SHARC                   
1 42712U 98067LT  18305.83846498  .00033462  00000-0  25682-3 0  9997
2 42712  51.6359  25.0853 0003603 351.7346   8.3592 15.71738573 83286
ZA-AEROSAT              
1 42713U 98067LU  18305.62930465  .00028022  00000-0  19331-3 0  9993
2 42713  51.6347  16.7884 0003494 352.8614   7.2334 15.74348727 83130
CSUNSAT 1               
1 42715U 98067LW  18305.82019746  .00029623  00000-0  19226-3 0  9998
2 42715  51.6348  14.3273 0004720 350.4960   9.5950 15.75720932 83187
SPACECUBE               
1 42717U 98067LY  18305.65878029  .00049080  00000-0  24922-3 0  9996
2 42717  51.6263   8.5840 0004456  29.1462 330.9788 15.80960116 82616
HOOPOE                  
1 42718U 98067LZ  18305.60517867  .00098090  14617-4  33519-3 0  9992
2 42718  51.6270   1.3910 0006253  21.2144 338.9120 15.89678154 82706
NJUST-1                 
1 42722U 98067MB  18305.80988606  .00021824  00000-0  16237-3 0  9998
2 42722  51.6386  18.5793 0005188  32.2926  65.9909 15.72730956 82190
UNSW-ECO                
1 42723U 98067MC  18305.57493244  .00160188  21082-4  41899-3 0  9998
2 42723  51.6372 359.8137 0008411  24.5256 335.6150 15.94522979 82408
LILACSAT-1              
1 42725U 98067ME  18305.73249047  .00036816  00000-0  21484-3 0  9999
2 42725  51.6372  12.7695 0005231  22.9337  72.7384 15.78015636 82174
NSIGHT-1                
1 42726U 98067MF  18305.67594174  .00009567  00000-0  10383-3 0  9996
2 42726  51.6394  33.0529 0005343  28.2918 331.8367 15.64258309 81900
SNUSAT-1                
1 42727U 98067MG  18305.66846102  .00037766  00000-0  22174-3 0  9990
2 42727  51.6336  13.2142 0006651   4.9740 355.1325 15.77854183 82129
I-INSPIRE II            
1 42731U 98067ML  18305.60443148  .00216287  29962-4  48180-3 0  9996
2 42731  51.6324 357.6067 0008966  14.2090 345.9170 15.97355090 82215
POLYITAN-2-SAU          
1 42732U 98067MM  18305.64977498  .00060086  00000-0  27554-3 0  9995
2 42732  51.6321   7.0523 0006549   0.6660 359.4350 15.83054132 82097
SNUSAT-1B               
1 42733U 98067MN  18305.61311513  .00046432  00000-0  25257-3 0  9990
2 42733  51.6303  11.3575 0006688 358.7857   1.3127 15.79458885 82039
EXALTA-1                
1 42734U 98067MP  18305.61121959  .00349534  65771-4  53182-3 0  9991
2 42734  51.6197 355.1951 0010164  24.2546 335.8942 16.03812999 82197
BEEAGLESAT              
1 42736U 98067MR  18305.78646341  .00032613  00000-0  20516-3 0  9990
2 42736  51.6323  14.0518 0006058  22.3761 337.7502 15.76373677 82079
UCLSAT                  
1 42765U 17036A   18305.35238800  .00000903  00000-0  42343-4 0  9999
2 42765  97.3850   2.8933 0010541 322.0670  37.9823 15.22178718 75572
LITUANICASAT-2          
1 42768U 17036D   18304.78659246  .00001438  00000-0  66097-4 0  9995
2 42768  97.3873   1.8936 0014139 311.4117  48.5903 15.21896491 75332
AALTO-1                 
1 42775U 17036L   18304.75408342  .00000509  00000-0  26063-4 0  9996
2 42775  97.3842   1.5435 0012797 310.8989  49.1137 15.20967548 75253
URSA MAIOR              
1 42776U 17036M   18304.79847771  .00000612  00000-0  30589-4 0  9997
2 42776  97.3848   1.6689 0012633 310.8627  49.1513 15.21066898 75268
COMPASS 2               
1 42777U 17036N   18305.16130356  .00001157  00000-0  53412-4 0  9999
2 42777  97.3875   2.6589 0011467 312.5646  47.4622 15.22161799 75341
DIAMOND RED             
1 42783U 17036U   18304.92850541  .00000721  00000-0  34851-4 0  9996
2 42783  97.3851   2.2492 0011227 323.6236  36.4236 15.21734325 75308
PEGASUS                 
1 42784U 17036V   18305.40759495  .00000782  00000-0  37279-4 0  9991
2 42784  97.3853   2.8380 0011084 321.6884  38.3564 15.21971982 75386
DIAMOND GREEN           
1 42785U 17036W   18305.65058967  .00000739  00000-0  35624-4 0  9999
2 42785  97.3853   2.9752 0011055 321.5077  38.5370 15.21734438 75405
DIAMOND BLUE            
1 42786U 17036X   18305.38666792  .00000727  00000-0  35108-4 0  9995
2 42786  97.3853   2.7158 0010944 322.8995  37.1484 15.21737088 75363
NUDTSAT                 
1 42787U 17036Y   18305.20234040  .00001812  00000-0  80661-4 0  9994
2 42787  97.3885   2.9874 0011870 324.3855  35.6557 15.22694005 75217
SUCHAI                  
1 42788U 17036Z   18304.81251017  .00000981  00000-0  45573-4 0  9993
2 42788  97.3856   2.4155 0010721 323.7981  36.2529 15.22292640 75372
SKCUBE                  
1 42789U 17036AA  18304.81630223  .00000891  00000-0  41763-4 0  9991
2 42789  97.3853   2.3996 0010563 323.9406  36.1117 15.22231438 75291
VZLUSAT-1               
1 42790U 17036AB  18304.86161161  .00001228  00000-0  55657-4 0  9990
2 42790  97.3861   2.6566 0010171 323.7115  36.3431 15.22696930 75314
ROBUSTA-1B              
1 42792U 17036AD  18304.83719092  .00000937  00000-0  43544-4 0  9999
2 42792  97.3853   2.5118 0010159 325.0752  34.9817 15.22389896 75319
CICERO 6                
1 42793U 17036AE  18305.37553875  .00000725  00000-0  34630-4 0  9996
2 42793  97.3841   2.9792 0009371 325.2113  34.8510 15.22149418 75465
D-SAT                   
1 42794U 17036AF  18305.36018198  .00000381  00000-0  38606-4 0  9995
2 42794  97.5747 354.7136 0126818 185.0140 174.9819 14.90955890 74168
TOKI                    
1 42820U 98067MU  18305.43746650  .00030644  00000-0  20373-3 0  9993
2 42820  51.6337  19.2436 0003926 343.8682  16.2192 15.75151799 75432
MAZAALAI (NUMSAT-1)     
1 42822U 98067MW  18305.69401529  .00031298  00000-0  21258-3 0  9995
2 42822  51.6337  18.7201 0003938 347.1528  12.9370 15.74644641 75441
BRAC ONNESHA            
1 42823U 98067MX  18305.67622724  .00028777  00000-0  19381-3 0  9998
2 42823  51.6343  18.6277 0005752 356.1798   3.9157 15.74878282 75449
NIGERIAEDUSAT-1         
1 42824U 98067MY  18305.47148560  .00028113  00000-0  19294-3 0  9995
2 42824  51.6343  20.2850 0005616 355.3578   4.7368 15.74455893 75398
CORVUS BC2              
1 42846U 17042X   18305.77232921 -.00000026  00000-0  26956-5 0  9990
2 42846  97.5837 203.5732 0011178  96.7615 263.4876 14.91876602 70882
CORVUS BC1              
1 42847U 17042Y   18305.20434310  .00000303  00000-0  35151-4 0  9998
2 42847  97.5837 203.0965 0010772  98.0084 262.2359 14.91975946 70794
SILU-1 (SILKROAD 1)     
1 42903U 17021F   18305.81738619  .00036972  00000-0  19503-3 0  9997
2 42903  42.7757 210.2113 0014956 203.8766 267.4493 15.79784030 71635
MIRATA                  
1 43015U 17073C   18305.35914451  .00000561  00000-0  49635-4 0  9993
2 43015  97.7091 230.6662 0256862 184.5523 175.3352 14.78453269 51405
